STARLINK-2319           
1 47790U 21018D   26068.63682306  .00000665  00000+0  34593-4 0  9999
2 47790  53.1599 216.9503 0001262 122.8406 237.2717 15.30195970277095
NUSHSAT1                
1 63211U 25052B   26068.64700493  .00023034  00000+0  74857-3 0  9997
2 63211  97.4095 325.7239 0005501  84.7512 275.4357 15.31903202 54882
